[
  {
    "address": "서울특별시 중구 을지로 39길 29",
    "centerName": "코로나19 중앙 예방접종센터",
    "centerType": "중앙/권역",
    "facilityName": "국립중앙의료원 D동",
    "id": 1,
    "lat": 127.004501,
    "lng": 37.567817,
    "org": "국립중앙의료원",
    "sido": "서울특별시",
    "sigungu": "중구",
    "zipCode": "04562"
  },
  {
    "address": "충청남도 천안시 동남구 천안대로 357",
    "centerName": "코로나19 중부권역 예방접종센터",
    "centerType": "중앙/권역",
    "facilityName": "천안시 실내배드민턴장 1층",
    "id": 2,
    "lat": 127.164717,
    "lng": 36.779887,
    "org": "순천향대 천안병원",
    "sido": "충청남도",
    "sigungu": "천안시 동남구",
    "zipCode": "31212"
  },
  {
    "address": "광주광역시 동구 필문대로 365",
    "centerName": "코로나19 호남권역 예방접종센터",
    "centerType": "중앙/권역",
    "facilityName": "조선대학교병원 의성관 5층",
    "id": 3,
    "lat": 126.925563,
    "lng": 35.139465,
    "org": "조선대병원",
    "sido": "광주광역시",
    "sigungu": "동구",
    "zipCode": "61452"
  },
  {
    "address": "경상남도 양산시 물금읍 금오로 20",
    "centerName": "코로나19 영남권역 예방접종센터",
    "centerType": "중앙/권역",
    "facilityName": "양산 부산대병원 기숙사동 1층",
    "id": 4,
    "lat": 129.009337,
    "lng": 35.3239,
    "org": "양산 부산대병원",
    "sido": "경상남도",
    "sigungu": "양산시",
    "zipCode": "50612"
  },
  {
    "address": "대구시 중구 달성로 56",
    "centerName": "코로나19 대구광역시 중구 예방접종센터",
    "centerType": "지역",
    "facilityName": "계명대학교 대구동산병원 별관",
    "id": 5,
    "lat": 128.583716,
    "lng": 35.869985,
    "org": "",
    "sido": "대구광역시",
    "sigungu": "중구",
    "zipCode": "41931"
  },
  {
    "address": "서울특별시 성동구 고산자로 270",
    "centerName": "코로나19 서울특별시 성동구 예방접종센터",
    "centerType": "지역",
    "facilityName": "성동구청 대강당(3층)",
    "id": 6,
    "lat": 127.036981,
    "lng": 37.563457,
    "org": "",
    "sido": "서울특별시",
    "sigungu": "성동구",
    "zipCode": "04750"
  },
  {
    "address": "부산 부산진구 시민공원로 73",
    "centerName": "코로나19 부산광역시 부산진구 예방접종센터",
    "centerType": "지역",
    "facilityName": "부산시민공원 시민사랑채",
    "id": 7,
    "lat": 129.059301,
    "lng": 35.170182,
    "org": "",
    "sido": "부산광역시",
    "sigungu": "부산진구",
    "zipCode": "47197"
  },
  {
    "address": "인천광역시 연수구 경원대로 526",
    "centerName": "코로나19 인천광역시 연수구 예방접종센터",
    "centerType": "지역",
    "facilityName": "선학경기장 선학체육관",
    "id": 8,
    "lat": 126.703271,
    "lng": 37.429571,
    "org": "",
    "sido": "인천광역시",
    "sigungu": "연수구",
    "zipCode": "21908"
  },
  {
    "address": "광주광역시 서구 금화로 278",
    "centerName": "코로나19 광주광역시 서구 예방접종센터",
    "centerType": "지역",
    "facilityName": "염주종합체육관",
    "id": 9,
    "lat": 126.878966,
    "lng": 35.135398,
    "org": "",
    "sido": "광주광역시",
    "sigungu": "서구",
    "zipCode": "62048"
  },
  {
    "address": "대전광역시 유성구 유성대로 976",
    "centerName": "코로나19 대전광역시 유성구 예방접종센터",
    "centerType": "지역",
    "facilityName": "유성종합스포츠센터",
    "id": 10,
    "lat": 127.344399,
    "lng": 36.378512,
    "org": "",
    "sido": "대전광역시",
    "sigungu": "유성구",
    "zipCode": "34128"
  },
  {
    "address": "울산시 중구 염포로 85",
    "centerName": "코로나19 울산광역시 중구 예방접종센터",
    "centerType": "지역",
    "facilityName": "동천체육관",
    "id": 11,
    "lat": 129.350436,
    "lng": 35.562451,
    "org": "",
    "sido": "울산광역시",
    "sigungu": "중구",
    "zipCode": "44497"
  },
  {
    "address": "세종특별자치시 달빛1로 227",
    "centerName": "코로나19 세종특별자치시 예방접종센터",
    "centerType": "지역",
    "facilityName": "남세종종합청소년센터",
    "id": 12,
    "lat": 127.245248,
    "lng": 36.519427,
    "org": "",
    "sido": "세종특별자치시",
    "sigungu": "",
    "zipCode": "30099"
  },
  {
    "address": "경기도 수원시 영통구 월드컵로 206",
    "centerName": "코로나19 경기도 수원시 예방접종센터",
    "centerType": "지역",
    "facilityName": "아주대 실내체육관",
    "id": 13,
    "lat": 127.045439,
    "lng": 37.279932,
    "org": "",
    "sido": "경기도",
    "sigungu": "수원시 영통구",
    "zipCode": "16499"
  },
  {
    "address": "경기도 고양시 일산동구 호수로 595",
    "centerName": "코로나19 경기도 고양시 일산동구 예방접종센터",
    "centerType": "지역",
    "facilityName": "고양꽃전시관",
    "id": 14,
    "lat": 126.768889,
    "lng": 37.653775,
    "org": "",
    "sido": "경기도",
    "sigungu": "고양시 일산동구",
    "zipCode": "10400"
  },
  {
    "address": "강원도 원주시 서원대로 279",
    "centerName": "코로나19 강원도 원주시 예방접종센터",
    "centerType": "지역",
    "facilityName": "치악체육관",
    "id": 15,
    "lat": 127.940763,
    "lng": 37.338561,
    "org": "",
    "sido": "강원도",
    "sigungu": "원주시",
    "zipCode": "26447"
  },
  {
    "address": "충청북도 청주시 상당구 남일면 단재로 466",
    "centerName": "코로나19 충청북도 청주시 예방접종센터",
    "centerType": "지역",
    "facilityName": "상당구청 스포츠센터",
    "id": 16,
    "lat": 127.505123,
    "lng": 36.589755,
    "org": "",
    "sido": "충청북도",
    "sigungu": "청주시 상당구",
    "zipCode": "28806"
  },
  {
    "address": "충남 천안시 서북구 번영로 208",
    "centerName": "코로나19 충청남도 천안시 서북구 예방접종센터",
    "centerType": "지역",
    "facilityName": "천안시 실내테니스장",
    "id": 17,
    "lat": 127.112761,
    "lng": 36.817161,
    "org": "",
    "sido": "충청남도",
    "sigungu": "천안시 서북구",
    "zipCode": "31157"
  },
  {
    "address": "전주시 완산구 백제대로 310",
    "centerName": "코로나19 전라북도 전주시 예방접종센터",
    "centerType": "지역",
    "facilityName": "화산체육관",
    "id": 18,
    "lat": 127.124525,
    "lng": 35.821042,
    "org": "",
    "sido": "전라북도",
    "sigungu": "전주시 완산구",
    "zipCode": "54984"
  },
  {
    "address": "전남 목포시 대양로 286",
    "centerName": "코로나19 전라남도 목포시 예방접종센터",
    "centerType": "지역",
    "facilityName": "목포실내체육관",
    "id": 19,
    "lat": 126.406585,
    "lng": 34.825289,
    "org": "",
    "sido": "전라남도",
    "sigungu": "목포시",
    "zipCode": "58608"
  },
  {
    "address": "경북 포항시 남구 희망대로 810",
    "centerName": "코로나19 경상북도 포항시 남구 예방접종센터",
    "centerType": "지역",
    "facilityName": "포항종합운동장 실내체육관",
    "id": 20,
    "lat": 129.360825,
    "lng": 36.008538,
    "org": "",
    "sido": "경상북도",
    "sigungu": "포항시 남구",
    "zipCode": "37832"
  },
  {
    "address": "경남 창원시 마산회원구 삼호로 63",
    "centerName": "코로나19 경상남도 창원시 마산구 예방접종센터",
    "centerType": "지역",
    "facilityName": "마산체육관",
    "id": 21,
    "lat": 128.579527,
    "lng": 35.222011,
    "org": "",
    "sido": "경상남도",
    "sigungu": "창원시 마산회원구",
    "zipCode": "51323"
  },
  {
    "address": "제주시 서광로2길 24",
    "centerName": "코로나19 제주특별자치도 제주시 예방접종센터",
    "centerType": "지역",
    "facilityName": "한라체육관",
    "id": 22,
    "lat": 126.515526,
    "lng": 33.497436,
    "org": "",
    "sido": "제주특별자치도",
    "sigungu": "제주시",
    "zipCode": "63189"
  }
]
